{"type":"Feature","properties":{},"geometry":{"type":"LineString","coordinates":[[9.23064,48.84266],[9.23036,48.84254],[9.23022,48.84249],[9.2302,48.84248],[9.2302,48.84248],[9.23016,48.84253],[9.23012,48.8426],[9.23006,48.84268],[9.23003,48.84278],[9.23005,48.84294],[9.23013,48.84325],[9.23013,48.84328],[9.23023,48.84365],[9.23025,48.84374],[9.23026,48.84379],[9.23027,48.84388],[9.23026,48.84403],[9.23023,48.84413],[9.2302,48.84422],[9.23015,48.8443],[9.2301,48.84439],[9.22991,48.8446],[9.22971,48.8448],[9.22958,48.84489],[9.22937,48.84502],[9.22893,48.84522],[9.22847,48.84533],[9.22838,48.84533],[9.22828,48.84531],[9.22828,48.84531],[9.22818,48.84535],[9.22803,48.84541],[9.22781,48.8455],[9.22711,48.84579],[9.22623,48.84613],[9.22563,48.84634],[9.22494,48.84659],[9.2242,48.84682],[9.22385,48.84693],[9.22358,48.84702],[9.22293,48.84724],[9.22257,48.84733],[9.22248,48.84735],[9.22232,48.84738],[9.22181,48.8475],[9.22161,48.84754],[9.22161,48.84754],[9.22157,48.84747],[9.22154,48.8474],[9.22131,48.84733],[9.22126,48.84733],[9.22121,48.84732],[9.22104,48.84736],[9.22088,48.84739],[9.22044,48.84747],[9.2202,48.84751],[9.21997,48.84754],[9.21975,48.84757],[9.21953,48.84759],[9.219,48.84764],[9.21873,48.84766],[9.21847,48.84768],[9.21824,48.84769],[9.21792,48.8477],[9.21772,48.8477],[9.2175,48.8477],[9.21681,48.84767],[9.21651,48.84765],[9.21621,48.84763],[9.21587,48.8476],[9.21487,48.8475],[9.21398,48.8474],[9.21366,48.84736],[9.21335,48.84733],[9.21305,48.84729],[9.21283,48.84725],[9.21262,48.84721],[9.21247,48.84717],[9.21233,48.84713],[9.21219,48.84708],[9.21186,48.84695],[9.21155,48.8468],[9.21125,48.84665],[9.21105,48.84655],[9.21086,48.84646],[9.21074,48.8464],[9.2106,48.84635],[9.21045,48.84631],[9.21016,48.84623],[9.20936,48.84604],[9.20936,48.84604],[9.20914,48.84641],[9.20914,48.84641],[9.20894,48.84639],[9.20851,48.84635],[9.20819,48.84629],[9.20766,48.8462],[9.20715,48.84612],[9.20669,48.84604],[9.20635,48.84593],[9.20585,48.8458],[9.20543,48.84568],[9.20521,48.84564],[9.20473,48.84559],[9.20455,48.84557],[9.20445,48.84554],[9.20432,48.84549],[9.20418,48.8454],[9.20338,48.84476],[9.20298,48.84453],[9.2028,48.84446],[9.20117,48.84386],[9.20097,48.84376],[9.20069,48.84361],[9.20044,48.84346],[9.20025,48.84328],[9.20017,48.84318],[9.2001,48.84308],[9.20004,48.843],[9.19997,48.84289],[9.19988,48.84275],[9.19961,48.84233],[9.19957,48.84227],[9.19951,48.84219],[9.19922,48.84173],[9.19918,48.84168],[9.19899,48.84149],[9.19878,48.84128],[9.19845,48.84105],[9.19841,48.84102],[9.1982,48.84088],[9.1981,48.8408],[9.19808,48.84078],[9.19796,48.8407],[9.19762,48.84049],[9.1973,48.84033],[9.19702,48.84022],[9.19675,48.84014],[9.19649,48.84007],[9.19624,48.83999],[9.19587,48.83988],[9.19565,48.83981],[9.19475,48.83962],[9.19464,48.83958],[9.19452,48.83957],[9.19441,48.83954],[9.19425,48.83951],[9.1942,48.8395],[9.19335,48.83933],[9.19332,48.83933],[9.19292,48.83925],[9.19287,48.83924],[9.19078,48.83883],[9.19078,48.83883],[9.18983,48.83866],[9.1894,48.83859],[9.18862,48.83847],[9.18829,48.83842],[9.1876,48.83831],[9.18732,48.83826],[9.18723,48.83824],[9.18709,48.8382],[9.18686,48.83812],[9.18653,48.83798],[9.18547,48.83754],[9.18398,48.83695],[9.18371,48.83684],[9.18366,48.83682],[9.1828,48.83643],[9.18219,48.83616],[9.18162,48.8359],[9.18148,48.83584],[9.18141,48.83581],[9.18133,48.83578],[9.18121,48.83572],[9.18121,48.83572],[9.18127,48.83567],[9.18128,48.83565],[9.18164,48.83531],[9.18174,48.8352],[9.18176,48.83517],[9.18176,48.83517],[9.18145,48.83503],[9.18094,48.83479],[9.18049,48.83447],[9.18019,48.83421],[9.18007,48.83407],[9.17997,48.83393],[9.17991,48.83377],[9.1799,48.83372],[9.17989,48.83366],[9.17982,48.83366],[9.17971,48.83327],[9.17971,48.83327],[9.17959,48.83327],[9.17895,48.83333],[9.17853,48.83336],[9.1781,48.83341],[9.17773,48.83348],[9.17742,48.83356],[9.17638,48.83377],[9.17604,48.83383],[9.1759,48.83385],[9.17525,48.83396],[9.17515,48.83397],[9.17506,48.83397],[9.17428,48.83412],[9.17423,48.83409],[9.17423,48.83409],[9.17415,48.83417],[9.17412,48.83419],[9.17412,48.83419],[9.17404,48.83417],[9.17284,48.83441],[9.17194,48.83458],[9.17077,48.83479],[9.16979,48.83499],[9.1691,48.83513],[9.1691,48.83513],[9.16935,48.83568],[9.1695,48.83604],[9.16954,48.83613],[9.16954,48.83613],[9.16937,48.83617],[9.16909,48.83622],[9.1689,48.83626],[9.16872,48.83629],[9.16859,48.83632],[9.16799,48.83645],[9.16663,48.83674],[9.16647,48.83677],[9.16624,48.8368],[9.16606,48.83683],[9.16533,48.83697],[9.16439,48.83716],[9.16421,48.83719],[9.16402,48.83719],[9.16378,48.83719],[9.16367,48.83718],[9.16343,48.83714],[9.16321,48.83709],[9.16301,48.83703],[9.16275,48.83693],[9.1627,48.83692],[9.16264,48.8369],[9.16259,48.83688],[9.16259,48.83688],[9.16252,48.83688],[9.16244,48.83689],[9.16237,48.83689],[9.16226,48.83689],[9.1621,48.83687],[9.16194,48.83684],[9.16048,48.83655],[9.16024,48.8365],[9.15993,48.83643],[9.15907,48.83627],[9.15903,48.83626],[9.15893,48.83624],[9.1581,48.83609],[9.15737,48.83594],[9.1571,48.83588],[9.15704,48.83587],[9.15697,48.83586],[9.15676,48.83582],[9.15649,48.83576],[9.15632,48.83573],[9.15613,48.83569],[9.15585,48.83564],[9.1557,48.8356],[9.15538,48.83554],[9.15524,48.83551],[9.15398,48.83528],[9.15371,48.83524],[9.15337,48.83518],[9.1529,48.8351],[9.15258,48.83505],[9.1525,48.83505],[9.1524,48.83505],[9.15226,48.83505],[9.15226,48.83505],[9.15217,48.83507],[9.15212,48.83507],[9.15212,48.83507],[9.15197,48.83509],[9.15191,48.8351],[9.15191,48.8351],[9.15179,48.83501],[9.15179,48.83501],[9.15189,48.83491],[9.15189,48.83491],[9.15191,48.83488],[9.15191,48.83488],[9.15186,48.8347],[9.15183,48.83462],[9.15177,48.83442],[9.15174,48.83437],[9.15168,48.83429],[9.15162,48.83421],[9.15154,48.83411],[9.15143,48.83405],[9.15143,48.83405],[9.15155,48.83403],[9.15155,48.83403],[9.15159,48.83396],[9.15159,48.83396],[9.1512,48.83395],[9.15053,48.83393],[9.14981,48.8339],[9.14952,48.83388],[9.14921,48.83386],[9.14825,48.83377],[9.14749,48.83368],[9.1465,48.83352],[9.14627,48.83351],[9.14621,48.83351],[9.14621,48.83351],[9.14609,48.83357],[9.14596,48.8336],[9.14592,48.83362],[9.14585,48.83365],[9.14572,48.83372],[9.14563,48.83377],[9.14561,48.83378],[9.1455,48.83383],[9.1455,48.83383],[9.14551,48.83387],[9.14551,48.83392],[9.14549,48.83397],[9.1454,48.83408],[9.14528,48.83418],[9.14509,48.83433],[9.14502,48.83438],[9.14495,48.83441],[9.14484,48.83445],[9.14476,48.83445],[9.14459,48.83445],[9.14441,48.83445],[9.14434,48.83446],[9.14425,48.83448],[9.14408,48.83452],[9.14399,48.83454],[9.14391,48.83456],[9.14378,48.83459],[9.14369,48.83461],[9.14369,48.83461],[9.14272,48.83416],[9.14049,48.8331],[9.13945,48.8326],[9.13929,48.83253],[9.1389,48.83234],[9.1384,48.83212],[9.13729,48.83158],[9.13658,48.83124],[9.13624,48.83109],[9.13624,48.83109],[9.13572,48.83084],[9.13545,48.83074],[9.13525,48.83068],[9.13489,48.83058],[9.13462,48.83053],[9.13432,48.83049],[9.13413,48.83046],[9.1341,48.83046],[9.13382,48.83044],[9.13367,48.83043],[9.13352,48.83041],[9.13339,48.8304],[9.13317,48.83039],[9.13294,48.83037],[9.13248,48.83033],[9.13175,48.83028],[9.13166,48.83027],[9.13136,48.83025],[9.13099,48.83022],[9.13097,48.83022],[9.12838,48.83006],[9.12825,48.83003],[9.12819,48.83002],[9.12817,48.83001],[9.12812,48.82999],[9.12809,48.82996],[9.12806,48.82992],[9.12806,48.82992],[9.12801,48.82983],[9.12801,48.82983],[9.12786,48.82983],[9.12786,48.82983],[9.12786,48.82981],[9.12785,48.82978],[9.12784,48.82976],[9.12781,48.82969],[9.12756,48.82939],[9.12709,48.82891],[9.12614,48.82798],[9.12607,48.82791],[9.1257,48.82757],[9.12549,48.82737],[9.12534,48.82726],[9.12539,48.82722],[9.12539,48.82722],[9.12524,48.82712],[9.12515,48.82707],[9.12506,48.82702],[9.12492,48.82695],[9.1248,48.8269],[9.12466,48.82685],[9.12435,48.82675],[9.12435,48.82675],[9.12406,48.82669],[9.12351,48.8266],[9.12295,48.82649],[9.1206,48.82586],[9.11926,48.82552],[9.11901,48.82545],[9.11792,48.82517],[9.11717,48.82497],[9.11678,48.82487],[9.11631,48.82476],[9.11556,48.82461],[9.11512,48.82452],[9.11473,48.82442],[9.11463,48.8244],[9.11447,48.82436],[9.1143,48.82431],[9.11402,48.82424],[9.11352,48.82408],[9.11352,48.82408],[9.11314,48.82395],[9.11293,48.82387],[9.11278,48.82383],[9.11269,48.8238],[9.11238,48.82371],[9.1117,48.82354],[9.11159,48.82351],[9.11145,48.82347],[9.11116,48.82338],[9.1111,48.82336],[9.11105,48.82334],[9.11091,48.82328],[9.11059,48.82311],[9.10938,48.82251],[9.10878,48.82221],[9.10871,48.82216],[9.10855,48.82206],[9.10848,48.82201],[9.10834,48.82191],[9.10822,48.8218],[9.10809,48.82166],[9.10797,48.82152],[9.10786,48.8214],[9.10774,48.82128],[9.10765,48.82116],[9.10754,48.82105],[9.10734,48.82086],[9.10712,48.82073],[9.10674,48.82051],[9.10657,48.82041],[9.10653,48.82039],[9.10647,48.82035],[9.10647,48.82035],[9.10642,48.82039],[9.10636,48.82041],[9.10628,48.82042],[9.10621,48.8204],[9.10616,48.82037],[9.10613,48.82034],[9.10612,48.82029],[9.10613,48.82025],[9.10616,48.82022],[9.10619,48.82019],[9.10619,48.82019],[9.10617,48.82016],[9.10616,48.82012],[9.10616,48.82012],[9.1061,48.82012],[9.10601,48.82012],[9.10586,48.8201],[9.10555,48.82008],[9.10507,48.82006],[9.10479,48.82006],[9.10458,48.82004],[9.10407,48.82],[9.10349,48.81996],[9.10323,48.81993],[9.10249,48.81985],[9.10161,48.81973],[9.10111,48.81967],[9.10101,48.81965],[9.10096,48.81963],[9.10088,48.81958],[9.10079,48.81953],[9.1007,48.8195],[9.10058,48.81947],[9.10058,48.81947],[9.10052,48.81967],[9.10052,48.81967],[9.09933,48.81952],[9.09909,48.8195],[9.09909,48.8195],[9.0988,48.81955],[9.09865,48.81954],[9.09849,48.8195],[9.09836,48.81947],[9.09818,48.8194],[9.09806,48.81935],[9.09799,48.81932],[9.09792,48.81929],[9.09775,48.81913],[9.09752,48.81892],[9.09746,48.81888],[9.0974,48.81886],[9.0974,48.81886],[9.09735,48.81887],[9.09714,48.81897],[9.09674,48.8191],[9.09613,48.81928],[9.09514,48.81952],[9.09354,48.81995],[9.09247,48.82025],[9.09186,48.82041],[9.09184,48.82041],[9.09183,48.82041],[9.09179,48.82042],[9.09174,48.82043],[9.0917,48.82043],[9.09164,48.82046],[9.09162,48.82046],[9.09161,48.82046],[9.09147,48.82051],[9.09147,48.82051],[9.09144,48.82052],[9.09086,48.82068],[9.08904,48.82119],[9.08881,48.82125],[9.08875,48.82127],[9.088,48.82142],[9.0878,48.82146],[9.08741,48.82154],[9.08715,48.82159],[9.08594,48.82184],[9.08565,48.8219],[9.08491,48.82205],[9.08449,48.82214],[9.08433,48.82218],[9.08426,48.82221],[9.08415,48.82228],[9.08408,48.82231],[9.08403,48.82232],[9.08396,48.82232],[9.08394,48.82231],[9.0839,48.8223],[9.08387,48.82228],[9.08387,48.82228],[9.08378,48.8223],[9.08359,48.82234],[9.08309,48.82245],[9.08205,48.82265],[9.08141,48.82276],[9.08121,48.82279],[9.08086,48.82282],[9.08046,48.82287],[9.08023,48.8229],[9.07992,48.82294],[9.07955,48.82298],[9.07914,48.82302],[9.07798,48.82313],[9.07673,48.82322],[9.07597,48.82328],[9.07544,48.82332],[9.07509,48.82335],[9.07508,48.82335],[9.07483,48.82338],[9.07445,48.82339],[9.07394,48.82337],[9.07362,48.82334],[9.07327,48.8233],[9.07318,48.82329],[9.07312,48.82329],[9.07299,48.82331],[9.07293,48.82332],[9.07293,48.82332],[9.07287,48.82328],[9.0728,48.82324],[9.07282,48.82316],[9.07282,48.82316],[9.0726,48.82309],[9.07233,48.82308],[9.07228,48.82308],[9.07162,48.82305],[9.07117,48.82303],[9.07114,48.82303],[9.07069,48.82301],[9.07042,48.823],[9.07012,48.82299],[9.06994,48.82298],[9.06975,48.82297],[9.06917,48.82295],[9.06902,48.82294],[9.06897,48.82293],[9.0687,48.8229],[9.06849,48.82287],[9.06841,48.82284],[9.06841,48.82284],[9.06844,48.82279],[9.0684,48.82274],[9.0684,48.82274],[9.06843,48.82272],[9.06851,48.82263],[9.06851,48.82263],[9.06839,48.82258],[9.06823,48.82231],[9.06809,48.82207],[9.06801,48.82194],[9.06789,48.82166],[9.06781,48.82144],[9.06772,48.82117],[9.06767,48.82095],[9.06763,48.82063],[9.06761,48.82038],[9.0676,48.82001],[9.0676,48.81989],[9.0676,48.81976],[9.0676,48.81959],[9.06761,48.81944],[9.06765,48.81928],[9.06769,48.81913],[9.06776,48.8189],[9.06779,48.81879],[9.06781,48.81873],[9.0678,48.81871],[9.06777,48.81868],[9.06769,48.81866],[9.06772,48.81858],[9.06772,48.81858],[9.06767,48.81857],[9.06724,48.81851],[9.06697,48.81845],[9.06664,48.81836],[9.06647,48.81832],[9.06606,48.81822],[9.06579,48.81818],[9.06556,48.81817],[9.06546,48.81816],[9.06535,48.81815],[9.06528,48.81815],[9.06521,48.81815],[9.06521,48.81815],[9.06519,48.81818],[9.06516,48.81821],[9.06512,48.81824],[9.06507,48.81826],[9.06501,48.81826],[9.06495,48.81826],[9.06489,48.81824],[9.06484,48.8182],[9.06481,48.81816],[9.0648,48.81811],[9.06482,48.81807],[9.0647,48.81804],[9.06446,48.81797],[9.0635,48.8177],[9.06322,48.81763],[9.06248,48.81745],[9.06231,48.8174],[9.06216,48.81736],[9.06201,48.81732],[9.06196,48.8173],[9.06183,48.81726],[9.06171,48.81723],[9.06152,48.81716],[9.06138,48.81711],[9.06138,48.81711],[9.06123,48.81707],[9.06117,48.81703],[9.06114,48.81701],[9.06113,48.81697],[9.06113,48.81695],[9.06115,48.81692],[9.06119,48.81691],[9.06119,48.81691],[9.06115,48.81681],[9.06115,48.81681],[9.06205,48.81569],[9.06213,48.81559],[9.06213,48.81559]]}}